     2              NAVIGATION DATA                         RINEX VERSION / TYPE
CCRINEXN V1.6.0 UX  CDDIS               06-OCT-16 15:33     PGM / RUN BY / DATE 
IGS BROADCAST EPHEMERIS FILE                                COMMENT             
    0.1024D-07  0.7451D-08 -0.5960D-07 -0.5960D-07          ION ALPHA           
    0.8806D+05  0.0000D+00 -0.1966D+06 -0.6554D+05          ION BETA            
    0.558793544769D-08 0.195399252334D-13   405504     1917 DELTA-UTC: A0,A1,T,W
    17                                                      LEAP SECONDS        
                                                            END OF HEADER       
 8 16 10  5 18  0  0.0-0.343821011484D-04-0.147792889038D-11 0.000000000000D+00
    0.820000000000D+02-0.296562500000D+02 0.426589197724D-08 0.164437318594D+00
   -0.165961682796D-05 0.178563932423D-02 0.101923942566D-04 0.515376145172D+04
    0.324000000000D+06-0.372529029846D-08 0.681119839810D+00-0.409781932831D-07
    0.964641045354D+00 0.182375000000D+03-0.102164622744D+01-0.791068665471D-08
    0.226438003480D-09 0.100000000000D+01 0.191700000000D+04 0.000000000000D+00
    0.200000000000D+01 0.000000000000D+00 0.512227416039D-08 0.820000000000D+02
    0.316800000000D+06 0.400000000000D+01 0.000000000000D+00 0.000000000000D+00
 9 16 10  5 18  0  0.0 0.219398178160D-03 0.727595761418D-11 0.000000000000D+00
    0.640000000000D+02 0.568750000000D+02 0.449125850752D-08-0.578906145673D+00
    0.290013849735D-05 0.561681459658D-03 0.103041529655D-04 0.515377866364D+04
    0.324000000000D+06 0.242143869400D-07-0.246062040905D+01-0.931322574616D-08
    0.954701229447D+00 0.176218750000D+03 0.192624748074D+01-0.797676083553D-08
   -0.198579700213D-09 0.100000000000D+01 0.191700000000D+04 0.000000000000D+00
    0.200000000000D+01 0.000000000000D+00 0.139698386192D-08 0.640000000000D+02
    0.316800000000D+06 0.400000000000D+01 0.000000000000D+00 0.000000000000D+00
10 16 10  5 18  0  0.0-0.105003360659D-03-0.363797880709D-11 0.000000000000D+00
    0.490000000000D+02-0.319062500000D+02 0.489520379787D-08 0.140278733321D+01
   -0.156462192535D-05 0.176729867235D-02 0.710412859917D-05 0.515367811203D+04
    0.324000000000D+06 0.108033418655D-06 0.278083065351D+01 0.353902578354D-07
    0.959943207248D+00 0.241968750000D+03-0.288573555516D+01-0.825320078945D-08
   -0.366443847488D-09 0.100000000000D+01 0.191700000000D+04 0.000000000000D+00
    0.200000000000D+01 0.000000000000D+00 0.232830643654D-08 0.490000000000D+02
    0.316800000000D+06 0.000000000000D+00 0.000000000000D+00 0.000000000000D+00
12 16 10  5 18  0  0.0 0.389093533158D-03 0.227373675443D-12 0.000000000000D+00
    0.102000000000D+03-0.640000000000D+02 0.380658713106D-08 0.224655191665D+01
   -0.336021184921D-05 0.604324834421D-02 0.526569783688D-05 0.515364994812D+04
    0.324000000000D+06-0.372529029846D-07-0.302726541844D+00-0.558793544769D-07
    0.990302685327D+00 0.292968750000D+03 0.786999028800D+00-0.787497088129D-08
   -0.162506769059D-09 0.100000000000D+01 0.191700000000D+04 0.000000000000D+00
    0.280000000000D+01 0.000000000000D+00-0.125728547573D-07 0.102000000000D+03
    0.316800000000D+06 0.400000000000D+01 0.000000000000D+00 0.000000000000D+00
13 16 10  5 18  0  0.0-0.476781278849D-04-0.216004991671D-11 0.000000000000D+00
    0.160000000000D+02 0.628437500000D+02 0.406266922648D-08-0.244180139284D+01
    0.318698585033D-05 0.399903289508D-02 0.107977539301D-04 0.515369201088D+04
    0.324000000000D+06 0.521540641785D-07-0.233792128872D+01 0.298023223877D-07
    0.970890248104D+00 0.177937500000D+03 0.193890196351D+01-0.770532095755D-08
   -0.197151069276D-09 0.000000000000D+00 0.191700000000D+04 0.000000000000D+00
    0.200000000000D+01 0.000000000000D+00-0.111758708954D-07 0.160000000000D+02
    0.323580000000D+06 0.400000000000D+01 0.000000000000D+00 0.000000000000D+00
15 16 10  5 18  0  0.0-0.329799484461D-03-0.136424205266D-11 0.000000000000D+00
    0.470000000000D+02 0.363437500000D+02 0.499806551701D-08-0.138906036472D+01
    0.186264514923D-05 0.856036716141D-02 0.102985650301D-04 0.515368217659D+04
    0.324000000000D+06 0.128522515297D-06-0.251642082250D+01-0.158324837685D-06
    0.930425465898D+00 0.165031250000D+03 0.507887567441D+00-0.815033907031D-08
   -0.215723272579D-09 0.100000000000D+01 0.191700000000D+04 0.000000000000D+00
    0.200000000000D+01 0.000000000000D+00-0.107102096081D-07 0.470000000000D+02
    0.316800000000D+06 0.000000000000D+00 0.000000000000D+00 0.000000000000D+00
16 16 10  5 18  0  0.0 0.969879329205D-05 0.181898940355D-11 0.000000000000D+00
    0.790000000000D+02-0.650312500000D+02 0.377980030100D-08 0.287764311659D+00
   -0.330619513988D-05 0.869329739362D-02 0.575743615627D-05 0.515357806969D+04
    0.324000000000D+06 0.931322574615D-07-0.283925193298D+00 0.104308128357D-06
    0.990809081735D+00 0.283218750000D+03 0.386067767672D+00-0.795604568695D-08
   -0.180721813503D-09 0.100000000000D+01 0.191700000000D+04 0.000000000000D+00
    0.200000000000D+01 0.000000000000D+00-0.107102096081D-07 0.790000000000D+02
    0.316800000000D+06 0.400000000000D+01 0.000000000000D+00 0.000000000000D+00
17 16 10  5 18  0  0.0-0.201475340873D-03 0.568434188608D-12 0.000000000000D+00
    0.103000000000D+03-0.366250000000D+02 0.407659837811D-08-0.659875489754D+00
   -0.176578760147D-05 0.112478345400D-01 0.107139348984D-04 0.515375744820D+04
    0.324000000000D+06-0.987201929092D-07 0.735493280545D+00 0.156462192535D-06
    0.977768654846D+00 0.186312500000D+03-0.192211539694D+01-0.792747306822D-08
    0.289654922433D-09 0.100000000000D+01 0.191700000000D+04 0.000000000000D+00
    0.200000000000D+01 0.000000000000D+00-0.107102096081D-07 0.103000000000D+03
    0.316800000000D+06 0.400000000000D+01 0.000000000000D+00 0.000000000000D+00
18 16 10  5 18  0  0.0 0.564215704799D-03 0.352429196937D-11 0.000000000000D+00
    0.110000000000D+03-0.305312500000D+02 0.580452752530D-08 0.911664555334D+00
   -0.160373747349D-05 0.172526479000D-01 0.695884227753D-05 0.515371590805D+04
    0.324000000000D+06-0.270083546638D-06 0.274714574466D+01 0.502914190292D-07
    0.925424312209D+00 0.233187500000D+03-0.185720680432D+01-0.894358720416D-08
   -0.406445488377D-09 0.100000000000D+01 0.191700000000D+04 0.000000000000D+00
    0.200000000000D+01 0.000000000000D+00-0.111758708954D-07 0.110000000000D+03
    0.316800000000D+06 0.000000000000D+00 0.000000000000D+00 0.000000000000D+00
19 16 10  5 18  0  0.0-0.522157642990D-03 0.568434188608D-12 0.000000000000D+00
    0.500000000000D+02-0.449687500000D+02 0.401588156330D-08 0.247098337986D+01
   -0.234693288803D-05 0.104468106292D-01 0.108741223812D-04 0.515363587189D+04
    0.324000000000D+06-0.372529029846D-07 0.783906263448D+00-0.165775418282D-06
    0.974889060065D+00 0.176156250000D+03 0.872920700217D+00-0.759138764034D-08
    0.302155443130D-09 0.100000000000D+01 0.191700000000D+04 0.000000000000D+00
    0.200000000000D+01 0.000000000000D+00-0.149011611938D-07 0.500000000000D+02
    0.316800000000D+06 0.400000000000D+01 0.000000000000D+00 0.000000000000D+00
21 16 10  5 18  0  0.0-0.532577279955D-03-0.341060513165D-12 0.000000000000D+00
    0.660000000000D+02 0.981250000000D+01 0.528700593931D-08 0.188321382609D+01
    0.167638063431D-06 0.233355276287D-01 0.648573040962D-05 0.515381228638D+04
    0.324000000000D+06 0.145286321640D-06 0.170543101098D+01-0.609084963798D-06
    0.937121969017D+00 0.242437500000D+03-0.175349260097D+01-0.821569935971D-08
    0.413588656199D-09 0.100000000000D+01 0.191700000000D+04 0.000000000000D+00
    0.200000000000D+01 0.000000000000D+00-0.977888703346D-08 0.660000000000D+02
    0.321930000000D+06 0.400000000000D+01 0.000000000000D+00 0.000000000000D+00
22 16 10  5 18  0  0.0 0.226766336709D-03-0.103455022327D-10 0.000000000000D+00
    0.810000000000D+02-0.275625000000D+02 0.565166398592D-08-0.115803635480D+01
   -0.134482979775D-05 0.739693024661D-02 0.691786408424D-05 0.515370791054D+04
    0.324000000000D+06-0.614672899246D-07 0.274752095097D+01 0.203028321266D-06
    0.923376607256D+00 0.224562500000D+03-0.186014662305D+01-0.860000108171D-08
   -0.373586989969D-09 0.100000000000D+01 0.191700000000D+04 0.000000000000D+00
    0.290000000000D+01 0.000000000000D+00-0.176951289177D-07 0.810000000000D+02
    0.316800000000D+06 0.400000000000D+01 0.000000000000D+00 0.000000000000D+00
23 16 10  5 18  0  0.0-0.192333012819D-03-0.136424205266D-11 0.000000000000D+00
    0.480000000000D+02 0.577187500000D+02 0.465876548485D-08-0.191621531374D+01
    0.281631946564D-05 0.111376516288D-01 0.984780490398D-05 0.515361007309D+04
    0.324000000000D+06 0.106170773506D-06-0.245661254748D+01-0.109896063805D-06
    0.945609228694D+00 0.180687500000D+03-0.252656025358D+01-0.791890128260D-08
   -0.517878714584D-10 0.100000000000D+01 0.191700000000D+04 0.000000000000D+00
    0.200000000000D+01 0.000000000000D+00-0.200234353542D-07 0.480000000000D+02
    0.316800000000D+06 0.400000000000D+01 0.000000000000D+00 0.000000000000D+00
24 16 10  5 18  0  0.0-0.241580419242D-04-0.568434188608D-12 0.000000000000D+00
    0.820000000000D+02 0.716875000000D+02 0.480912889095D-08-0.246118183458D+01
    0.377185642719D-05 0.474756909534D-02 0.480189919472D-05 0.515372529602D+04
    0.324000000000D+06-0.204890966415D-07-0.143128551867D+01-0.372529029846D-07
    0.947683688955D+00 0.280000000000D+03 0.391759130500D+00-0.833713298934D-08
    0.201436962087D-09 0.100000000000D+01 0.191700000000D+04 0.000000000000D+00
    0.280000000000D+01 0.000000000000D+00 0.232830643654D-08 0.820000000000D+02
    0.316800000000D+06 0.400000000000D+01 0.000000000000D+00 0.000000000000D+00
